ONEWEB-0707             
1 61612U 24188U   25103.78427669 -.00000046  00000+0 -16856-3 0  9999
2 61612  87.8795 121.8533 0001540 111.6398 248.4894 13.10377905 27086
ONEWEB-0708             
1 61613U 24188V   25104.10795695  .00000655  00000+0  18408-2 0  9992
2 61613  87.8848 121.7619 0001981 116.6058 243.5273 13.10376217 25379
